#aV2023  6 26  0  0  0.00000000     288 DD+AD WGS84 FIT  NGA
## 2268  86400.00000000   300.00000000 60121 0.0000000000000
+   32     1  2  3  4  5  6  7  8  9 10 11 12 13 14 15 16 17
+         18 19 20 21 22 23 24 25 26 27 28 29 30 31 32  0  0
+          0  0  0  0  0  0  0  0  0  0  0  0  0  0  0  0  0
+          0  0  0  0  0  0  0  0  0  0  0  0  0  0  0  0  0
+          0  0  0  0  0  0  0  0  0  0  0  0  0  0  0  0  0
++         2  2  2  2  2  2  2  2  2  2  2  2  2  2  2  2  2
++         2  2  2  2  2  2  2  2  2  2  2  2  2  2  2  0  0
++         0  0  0  0  0  0  0  0  0  0  0  0  0  0  0  0  0
++         0  0  0  0  0  0  0  0  0  0  0  0  0  0  0  0  0
++         0  0  0  0  0  0  0  0  0  0  0  0  0  0  0  0  0
%c cc cc ccc ccc cccc cccc cccc cccc ccccc ccccc ccccc ccccc
%c cc cc ccc ccc cccc cccc cccc cccc ccccc ccccc ccccc ccccc
%f  0.0000000  0.000000000  0.00000000000  0.000000000000000
%f  0.0000000  0.000000000  0.00000000000  0.000000000000000
%i    0    0    0    0      0      0      0      0         0
%i    0    0    0    0      0      0      0      0         0
/*      NGA, ST. LOUIS,MO.                                  
/*   EPHEMERIS COMPUTED FROM 2 DAYS OF DATA                 
/*   EPOCHA v8 SMOOTHER                                     
/*   G2139 IERS2010 SATIGS SATAPC                           
*  2023  6 26 13 10  0.00000000
P  1  13716.331728  -5218.214726  21766.706088    176.098910                    
V  1   4204.369016  28112.429984   4360.480394     -0.021670                    
P  2  15721.022155    836.873174  21912.612572   -582.107693                    
V  2   5833.084780  25950.583445  -5155.147591      0.036851                    
P  3  22532.876927 -11957.230534   7034.034946   -256.268154                    
V  3  -5742.831591   7435.120579  30554.880553      0.142373                    
P  4  21528.125864  -2423.507013 -15430.825940     78.896787                    
V  4  17230.262428   9457.387147  22422.330554      0.105297                    
P  5 -18428.230111  -1526.776273 -19287.402368   -132.590814                    
V  5  17305.815987 -16749.369709 -15240.022036     -0.014527                    
P  6  -5204.066630 -25888.172671  -2266.340774    582.723896                    
V  6   1552.906361  -3201.221444  32263.805211     -0.025635                    
P  7   7397.053599 -20426.644959 -14478.324143    141.892959                    
V  7   5643.911225  18787.315491 -23372.645181     -0.103879                    
P  8  25714.698078   5625.388677   4810.367122   -129.240089                    
V  8   4929.955283   4429.665500 -30668.248681     -0.017782                    
P  9  13280.580965 -10566.612904 -20513.375122   -126.688512                    
V  9  23997.837731   9757.608495  10506.083493      0.090293                    
P 10  -4582.906280  19100.471720  17902.435417    -42.740235                    
V 10 -18405.008725  12940.446813 -19007.054201     -0.014985                    
P 11 -12661.489389 -17331.287183 -15667.632772   -251.037944                    
V 11   -179.076553 -19962.877713  22173.240052     -0.154838                    
P 12 -23276.669601   8090.985730   9524.351529   -393.349575                    
V 12   8844.804057  -9204.426968  28684.541819     -0.046817                    
P 13 -22874.394111 -13691.878480  -1135.211364    539.183702                    
V 13   2205.846849  -1455.603699 -31772.577439      0.050896                    
P 14   8011.025028 -19941.904187  15521.039706    103.106970                    
V 14  17204.037035 -10023.843570 -21936.173922      0.122497                    
P 15 -26062.531182  -2480.917210   4765.751907     52.423517                    
V 15  -5642.510394  -4871.700860 -30172.803327      0.035329                    
P 16  15838.379788   6659.521505 -20673.537264   -487.455143                    
V 16 -20812.211012  14641.080492 -10954.022138      0.040737                    
P 17  -3399.085488 -16963.879181  20551.819625    719.501984                    
V 17  23176.579453   9762.810544  12251.860520      0.010242                    
P 18  -5729.850475  22502.916757 -12745.218923   -322.648928                    
V 18  -4207.466942 -15800.554786 -26166.183124     -0.147075                    
P 19 -11613.174595 -18025.555797  15656.076316    335.778734                    
V 19  18594.764964   7869.754075  22229.427348      0.051333                    
P 20 -11748.330390 -10036.812100 -21565.065044    425.919188                    
V 20  18189.995860 -20641.331445   -487.993653     -0.020478                    
P 21  16336.949030   4913.054534  21094.115097    152.767511                    
V 21   5634.375719  24729.201066  -9529.605845     -0.003488                    
P 22  14276.814972  17882.864981  14068.892759    503.814059                    
V 22 -16136.615201  -5792.525691  24380.785814      0.057974                    
P 23 -15283.547704  20093.417555   7992.233210     36.977627                    
V 23  -9271.734132   4795.074441 -29952.993437      0.038353                    
P 24 -15822.442843    719.210274  20990.673698   -237.954711                    
V 24  -6324.381096 -26836.238464  -3365.585819     -0.127831                    
P 25 -19732.587428  17525.242412  -1420.939779    452.314364                    
V 25  -3201.506621  -1615.984580  31688.110568      0.024671                    
P 26   6276.048732  15235.929368 -20894.588994    238.122354                    
V 26 -20081.323122  17208.319372   6896.093416     -0.009451                    
P 27  22462.051952  13280.042469  -6263.955606      8.847009                    
V 27  -7795.435366   -718.530281 -30319.055530     -0.074744                    
P 28   5129.760866  26061.094495   -304.703766     83.628112                    
V 28  -2693.374195    876.292076  31756.379264     -0.000292                    
P 29 -15596.294202   7645.644440 -20176.736820   -603.946781                    
V 29 -22539.143486 -11800.382629  12891.325302     -0.010679                    
P 30    851.074173 -25658.293423  -6120.944067   -508.480134                    
V 30   4831.147472   7395.705807 -30024.100214      0.025806                    
P 31  11046.460817  21013.657630 -11631.835960   -218.926343                    
V 31   -917.322423  14917.255252  26893.717040     -0.007283                    
P 32   7077.954422  17127.787780  19281.169837   -508.606347                    
V 32 -22895.380889  -7406.728417  14933.509698     -0.081400                    
EOF
